[Satellite]
VERSION=1.1
NAME=CZ-6A DEB
NICKNAME=CZ-6A DEB
TLE1=1 54567U 22151LT  22342.44876780  .00000352  00000+0  23217-3 0  9992
TLE2=2 54567  98.8208 346.9158 0056647  21.9484 338.4093 14.07220995  3479
STATUS=0
